NORAD_CAT_ID,OBJECT_NAME,OBJECT_TYPE,EPOCH,MEAN_MOTION,ECCENTRICITY,INCLINATION,RA_OF_ASC_NODE,ARG_OF_PERICENTER,MEAN_ANOMALY,BSTAR,MEAN_MOTION_DOT,MEAN_MOTION_DDOT,TLE_LINE0,TLE_LINE1,TLE_LINE2,SEMIMAJOR_AXIS,PERIOD,APOGEE,PERIGEE,DECAYED
53704.0,STARLINK-4714,PAYLOAD,2024-05-10 08:24:08,15.08849425,0.0001438,53.2187,4.6727,85.808,274.3077,0.00043136,6.586e-05,0.0,0 STARLINK-4714,1 53704U 22107E   24131.35009548  .00006586  00000-0  43136-3 0  9991,2 53704  53.2187   4.6727 0001438  85.8080 274.3077 15.08849425 93208,6917.852,95.437,540.711,538.722,0.0
53704.0,STARLINK-4714,PAYLOAD,2024-05-10 21:07:13,15.08844522,0.000144,53.219,2.2965,97.3989,262.7166,0.00030144,4.513e-05,0.0,0 STARLINK-4714,1 53704U 22107E   24131.88001891  .00004513  00000-0  30144-3 0  9995,2 53704  53.2190   2.2965 0001440  97.3989 262.7166 15.08844522 93280,6917.867,95.437,540.728,538.735,0.0
53704.0,STARLINK-4714,PAYLOAD,2024-05-10 22:42:36,15.08846997,0.0001684,53.2182,1.9959,81.1096,279.0087,0.00038023,5.77e-05,0.0,0 STARLINK-4714,1 53704U 22107E   24131.94625925  .00005770  00000-0  38023-3 0  9992,2 53704  53.2182   1.9959 0001684  81.1096 279.0087 15.08846997 93887,6917.859,95.437,540.889,538.559,0.0
53704.0,STARLINK-4714,PAYLOAD,2024-05-11 22:33:23,15.08803185,0.0001282,53.2172,357.5383,95.5921,264.5217,-0.0019373,-0.00030957,0.0,0 STARLINK-4714,1 53704U 22107E   24132.93985586 -.00030957  00000-0 -19373-2 0  9997,2 53704  53.2172 357.5383 0001282  95.5921 264.5217 15.08803185 94031,6917.993,95.44,540.745,538.971,0.0
53704.0,STARLINK-4714,PAYLOAD,2024-05-12 00:08:46,15.08801763,0.0001256,53.2168,357.2403,97.7672,262.3463,-0.0018707,-0.00029905,0.0,0 STARLINK-4714,1 53704U 22107E   24133.00609675 -.00029905  00000-0 -18707-2 0  9999,2 53704  53.2168 357.2403 0001256  97.7672 262.3463 15.08801763 93458,6917.997,95.44,540.731,538.993,0.0
53704.0,STARLINK-4714,PAYLOAD,2024-05-12 08:05:43,15.08787869,0.0001343,53.217,355.755,90.0725,270.0421,-0.0015108,-0.00024217,0.0,0 STARLINK-4714,1 53704U 22107E   24133.33730720 -.00024217  00000-0 -15108-2 0  9994,2 53704  53.2170 355.7550 0001343  90.0725 270.0421 15.08787869 94090,6918.04,95.441,540.834,538.976,0.0
53704.0,STARLINK-4714,PAYLOAD,2024-05-12 20:48:49,15.08792888,0.0001057,53.2137,353.3736,77.502,282.609,0.00023942,3.52e-05,0.0,0 STARLINK-4714,1 53704U 22107E   24133.86724326  .00003520  00000-0  23942-3 0  9995,2 53704  53.2137 353.3736 0001057  77.5020 282.6090 15.08792888 93584,6918.024,95.441,540.621,539.158,0.0
53704.0,STARLINK-4714,PAYLOAD,2024-05-12 22:24:13,15.0879782,0.0001165,53.215,353.0775,81.377,278.7354,0.0010885,0.00017058,0.0,0 STARLINK-4714,1 53704U 22107E   24133.93348640  .00017058  00000-0  10885-2 0  9996,2 53704  53.2150 353.0775 0001165  81.3770 278.7354 15.08797820 94181,6918.009,95.44,540.68,539.068,0.0
53704.0,STARLINK-4714,PAYLOAD,2024-05-13 07:56:32,15.08835106,0.0001078,53.2162,351.2908,85.7924,274.3192,0.0020078,0.00031806,0.0,0 STARLINK-4714,1 53704U 22107E   24134.33092980  .00031806  00000-0  20078-2 0  9996,2 53704  53.2162 351.2908 0001078  85.7924 274.3192 15.08835106 93657,6917.895,95.438,540.506,539.015,0.0
53704.0,STARLINK-4714,PAYLOAD,2024-05-13 14:18:04,15.08874726,6.46e-05,53.2195,350.097,102.0125,258.094,0.0031983,0.0005103,0.0,0 STARLINK-4714,1 53704U 22107E   24134.59588272  .00051030  00000-0  31983-2 0  9996,2 53704  53.2195 350.0970 0000646 102.0125 258.0940 15.08874726 94286,6917.774,95.435,540.086,539.192,0.0
53704.0,STARLINK-4714,PAYLOAD,2024-05-13 20:39:35,15.08922678,9.57e-05,53.2167,348.9105,82.2382,277.8719,0.0038814,0.0006217,0.0,0 STARLINK-4714,1 53704U 22107E   24134.86083126  .00062170  00000-0  38814-2 0  9991,2 53704  53.2167 348.9105 0000957  82.2382 277.8719 15.08922678 93732,6917.628,95.432,540.155,538.831,0.0
53704.0,STARLINK-4714,PAYLOAD,2024-05-14 07:47:16,15.08898641,0.0002552,53.2189,346.8272,92.2853,267.8432,0.0027026,0.00043057,0.0,0 STARLINK-4714,1 53704U 22107E   24135.32449812  .00043057  00000-0  27026-2 0  9997,2 53704  53.2189 346.8272 0002552  92.2853 267.8432 15.08898641 93806,6917.701,95.434,541.332,537.801,0.0
53704.0,STARLINK-4714,PAYLOAD,2024-05-14 20:30:21,15.0885974,0.0002516,53.2171,344.4476,101.6655,258.462,0.00063816,9.888e-05,0.0,0 STARLINK-4714,1 53704U 22107E   24135.85441532  .00009888  00000-0  63816-3 0  9998,2 53704  53.2171 344.4476 0002516 101.6655 258.4620 15.08859740 93882,6917.82,95.436,541.426,537.945,0.0
53704.0,STARLINK-4714,PAYLOAD,2024-05-15 20:21:09,15.08846952,0.0001324,53.2181,339.9883,100.1007,260.0135,0.00080863,0.00012607,0.0,0 STARLINK-4714,1 53704U 22107E   24136.84802091  .00012607  00000-0  80863-3 0  9993,2 53704  53.2181 339.9883 0001324 100.1007 260.0135 15.08846952 94034,6917.859,95.437,540.64,538.808,0.0
53704.0,STARLINK-4714,PAYLOAD,2024-05-16 13:50:23,15.08847437,0.0001687,53.2179,336.7142,97.9323,262.1861,0.001005,0.00015746,0.0,0 STARLINK-4714,1 53704U 22107E   24137.57666028  .00015746  00000-0  10050-2 0  9999,2 53704  53.2179 336.7142 0001687  97.9323 262.1861 15.08847437 94140,6917.858,95.437,540.89,538.556,0.0
53704.0,STARLINK-4714,PAYLOAD,2024-05-16 20:11:56,15.0884286,0.0001663,53.2183,335.5265,69.3575,290.7596,0.0004418,6.751e-05,0.0,0 STARLINK-4714,1 53704U 22107E   24137.84162198  .00006751  00000-0  44180-3 0  9996,2 53704  53.2183 335.5265 0001663  69.3575 290.7596 15.08842860 94770,6917.872,95.437,540.887,538.586,0.0
53704.0,STARLINK-4714,PAYLOAD,2024-05-16 23:22:42,15.08843557,0.0001526,53.2186,334.9326,71.506,288.6098,0.00022642,3.318e-05,0.0,0 STARLINK-4714,1 53704U 22107E   24137.97410127  .00003318  00000-0  22642-3 0  9993,2 53704  53.2186 334.9326 0001526  71.5060 288.6098 15.08843557 94201,6917.87,95.437,540.79,538.679,0.0
53704.0,STARLINK-4714,PAYLOAD,2024-05-17 12:05:48,15.08792763,8.82e-05,53.2177,332.5534,67.3576,292.7509,-0.0008915,-0.00014429,0.0,0 STARLINK-4714,1 53704U 22107E   24138.50403804 -.00014429  00000-0 -89150-3 0  9991,2 53704  53.2177 332.5534 0000882  67.3576 292.7509 15.08792763 94288,6918.025,95.441,540.5,539.28,0.0
53704.0,STARLINK-4714,PAYLOAD,2024-05-17 20:02:44,15.08811851,0.0001595,53.217,331.0692,87.5559,272.5616,-0.00045157,-7.462e-05,0.0,0 STARLINK-4714,1 53704U 22107E   24138.83523614 -.00007462  00000-0 -45157-3 0  9997,2 53704  53.2170 331.0692 0001595  87.5559 272.5616 15.08811851 94338,6917.966,95.439,540.935,538.728,0.0
53704.0,STARLINK-4714,PAYLOAD,2024-05-18 05:35:03,15.08825259,0.0001819,53.2184,329.2831,77.6764,282.4432,-8.014e-05,-1.563e-05,0.0,0 STARLINK-4714,1 53704U 22107E   24139.23267745 -.00001563  00000-0 -80140-4 0  9990,2 53704  53.2184 329.2831 0001819  77.6764 282.4432 15.08825259 94393,6917.925,95.438,541.049,538.532,0.0
53704.0,STARLINK-4714,PAYLOAD,2024-05-18 19:53:30,15.08866296,0.0001165,53.2169,326.6069,80.067,280.0454,0.00072186,0.00011227,0.0,0 STARLINK-4714,1 53704U 22107E   24139.82882083  .00011227  00000-0  72186-3 0  9999,2 53704  53.2169 326.6069 0001165  80.0670 280.0454 15.08866296 94482,6917.8,95.436,540.471,538.859,0.0
53704.0,STARLINK-4714,PAYLOAD,2024-05-18 21:28:53,15.08868722,0.0001183,53.217,326.3096,88.2902,271.8226,0.00074376,0.00011578,0.0,0 STARLINK-4714,1 53704U 22107E   24139.89505887  .00011578  00000-0  74376-3 0  9992,2 53704  53.2170 326.3096 0001183  88.2902 271.8226 15.08868722 95087,6917.793,95.436,540.476,538.839,0.0
53704.0,STARLINK-4714,PAYLOAD,2024-05-19 19:44:16,15.08825634,0.0001705,53.2158,322.1462,85.8768,274.2419,-0.00043777,-7.246e-05,0.0,0 STARLINK-4714,1 53704U 22107E   24140.82241713 -.00007246  00000-0 -43777-3 0  9992,2 53704  53.2158 322.1462 0001705  85.8768 274.2419 15.08825634 94633,6917.924,95.438,540.969,538.61,0.0
53704.0,STARLINK-4714,PAYLOAD,2024-05-19 21:19:39,15.08825559,0.0001726,53.2158,321.8489,87.7176,272.4014,-0.00045571,-7.531e-05,0.0,0 STARLINK-4714,1 53704U 22107E   24140.88865731 -.00007531  00000-0 -45571-3 0  9991,2 53704  53.2158 321.8489 0001726  87.7176 272.4014 15.08825559 95239,6917.925,95.438,540.984,538.595,0.0
53704.0,STARLINK-4714,PAYLOAD,2024-05-20 21:10:27,15.08831038,0.0001553,53.217,317.3859,68.8925,291.2233,-0.00024821,-4.235e-05,0.0,0 STARLINK-4714,1 53704U 22107E   24141.88226012 -.00004235  00000-0 -24821-3 0  9998,2 53704  53.2170 317.3859 0001553  68.8925 291.2233 15.08831038 94795,6917.908,95.438,540.847,538.698,0.0
53704.0,STARLINK-4714,PAYLOAD,2024-05-21 17:50:29,15.08833763,0.0001489,53.2165,313.5231,85.8453,274.271,0.00067555,0.00010478,0.0,0 STARLINK-4714,1 53704U 22107E   24142.74339657  .00010478  00000-0  67555-3 0  9999,2 53704  53.2165 313.5231 0001489  85.8453 274.2710 15.08833763 95513,6917.899,95.438,540.795,538.734,0.0
53704.0,STARLINK-4714,PAYLOAD,2024-05-22 11:19:43,15.08845925,0.0001403,53.2165,310.2525,93.1622,266.9531,0.00054978,8.474e-05,0.0,0 STARLINK-4714,1 53704U 22107E   24143.47203502  .00008474  00000-0  54978-3 0  9997,2 53704  53.2165 310.2525 0001403  93.1622 266.9531 15.08845925 95038,6917.862,95.437,540.698,538.757,0.0
53704.0,STARLINK-4714,PAYLOAD,2024-05-23 11:10:30,15.08845604,0.0001228,53.2163,305.7906,88.8356,271.2777,0.00021686,3.166e-05,0.0,0 STARLINK-4714,1 53704U 22107E   24144.46563330  .00003166  00000-0  21686-3 0  9998,2 53704  53.2163 305.7906 0001228  88.8356 271.2777 15.08845604 95189,6917.863,95.437,540.578,538.879,0.0
53704.0,STARLINK-4714,PAYLOAD,2024-05-23 14:21:17,15.0884067,0.0001319,53.2172,305.1951,97.7871,262.3271,6.9386e-05,8.17e-06,0.0,0 STARLINK-4714,1 53704U 22107E   24144.59811424  .00000817  00000-0  69386-4 0  9992,2 53704  53.2172 305.1951 0001319  97.7871 262.3271 15.08840670 95790,6917.878,95.438,540.656,538.831,0.0
53704.0,STARLINK-4714,PAYLOAD,2024-05-23 20:42:49,15.08841091,0.0001324,53.2179,304.006,103.7763,256.3377,7.8611e-05,9.63e-06,0.0,0 STARLINK-4714,1 53704U 22107E   24144.86307421  .00000963  00000-0  78611-4 0  9992,2 53704  53.2179 304.0060 0001324 103.7763 256.3377 15.08841091 95833,6917.877,95.437,540.658,538.826,0.0
